41180,ORBCOMM FM119,2015,98.84,-1.0,-,47.0,Inactive,0,LEO,USA,ORBCOMM,Unknown,Unknown,Unknown,1 41180U 15081B   24236.50816829  .00002101  00000+0  50075-3 0  9998,2 41180  46.9995 160.9223 0000766 136.3440 223.7505 14.56913310462291,14.5691331,7.66e-05,LEO
41181,ORBCOMM FM105,2015,99.68,-1.0,-,47.0,Inactive,0,LEO,USA,ORBCOMM,Unknown,Unknown,Unknown,1 41181U 15081C   24236.13048748  .00001173  00000+0  38132-3 0  9993,2 41181  47.0014 139.2445 0001408  49.6852 310.4150 14.44568558457648,14.44568558,0.0001408,LEO
40091,ORBCOMM FM103,2014,98.84,172.0,+,47.01,Active,1,LEO,USA,ORBCOMM,Commercial,Communications,Falcon,1 40091U 14040F   24236.57180229  .00002092  00000+0  49843-3 0  9997,2 40091  47.0066 342.1848 0002159 323.5112  36.5625 14.56937911520687,14.56937911,0.0002159,LEO
41179,ORBCOMM FM114,2015,98.84,172.0,+,47.0,Active,1,LEO,USA,ORBCOMM,Commercial,Communications,Falcon,1 41179U 15081A   24236.53279181  .00001910  00000+0  45812-3 0  9993,2 41179  47.0007 251.5794 0001527  17.7247 342.3691 14.56964207461045,14.56964207,0.0001527,LEO
41182,ORBCOMM FM110,2015,98.83,172.0,+,47.0,Active,1,LEO,USA,ORBCOMM,Commercial,Communications,Falcon,1 41182U 15081D   24236.50959728  .00001740  00000+0  42006-3 0  9999,2 41182  46.9996 251.0831 0002637 259.2604 100.7984 14.57025087460915,14.57025087,0.0002637,LEO
41183,ORBCOMM FM118,2015,98.83,172.0,+,47.0,Active,1,LEO,USA,ORBCOMM,Commercial,Communications,Falcon,1 41183U 15081E   24236.41886328  .00001560  00000+0  38056-3 0  9995,2 41183  47.0030 251.8438 0002801 254.1292 105.9284 14.57009246461008,14.57009246,0.0002801,LEO
41184,ORBCOMM FM112,2015,98.84,172.0,+,47.0,Active,1,LEO,USA,ORBCOMM,Commercial,Communications,Falcon,1 41184U 15081F   24236.48523891  .00002682  00000+0  62898-3 0  9993,2 41184  46.9979 160.2296 0001203  88.9790 271.1232 14.56901015462234,14.56901015,0.0001203,LEO
41185,ORBCOMM FM113,2015,98.84,172.0,+,47.0,Active,1,LEO,USA,ORBCOMM,Commercial,Communications,Falcon,1 41185U 15081G   24236.25662540  .00002613  00000+0  61373-3 0  9995,2 41185  46.9997 161.5896 0000819 111.1101 248.9871 14.56908563462182,14.56908563,8.19e-05,LEO
